[{"OBJECT_NAME":"LYNK TOWER 5","OBJECT_ID":"2024-043Z","EPOCH":"2026-03-09T22:11:51.175104","MEAN_MOTION":15.29454506,"ECCENTRICITY":0.00104056,"INCLINATION":97.5458,"RA_OF_ASC_NODE":204.7305,"ARG_OF_PERICENTER":234.6422,"MEAN_ANOMALY":125.3846,"EPHEMERIS_TYPE":0,"CLASSIFICATION_TYPE":"U","NORAD_CAT_ID":59121,"ELEMENT_SET_NO":999,"REV_AT_EPOCH":11186,"BSTAR":0.00031901545,"MEAN_MOTION_DOT":9.048e-5,"MEAN_MOTION_DDOT":0},{"OBJECT_NAME":"STARLINK-35922","OBJECT_ID":"2025-263T","EPOCH":"2026-03-09T05:16:26.739552","MEAN_MOTION":15.275785,"ECCENTRICITY":0.00033204,"INCLINATION":43.0093,"RA_OF_ASC_NODE":353.639,"ARG_OF_PERICENTER":259.7702,"MEAN_ANOMALY":100.2776,"EPHEMERIS_TYPE":0,"CLASSIFICATION_TYPE":"U","NORAD_CAT_ID":66502,"ELEMENT_SET_NO":999,"REV_AT_EPOCH":1882,"BSTAR":0.00087173129,"MEAN_MOTION_DOT":0.00023804,"MEAN_MOTION_DDOT":0}]
